ID,Address,Suburb,Price,Type,Date,Rooms,Bathroom,Car,LandSize,Age,Latitude,Longitude,train_station_id,distance_to_train_station,travel_min_to_CBD,over_priced?,crime_A_average,crime_B_average,crime_C_average,closest_primary_school,distance_to_closest_primary,primary_school_ranking,closest_secondary_school,distance_to_closest_secondary,secondary_school_ranking
ID394497766,26 Talbot St,BRUNSWICK,860000.0,h,22/08/2016,2,1.0,0.0,153.0,129.0,-37.7657,144.9574,19968,295.9916315916928,25.333333333333332,False,958.6666666666666,5673.0,628.0,Brunswick North Primary School,895.6467570165834,not ranked,Sydney Road Community School,593.8399209482412,447
ID655661881,31 Riley St,OAKLEIGH SOUTH,1310000.0,h,25/02/2017,4,2.0,4.0,993.0,59.0,-37.9239,145.0943,19916,1599.3941816326496,31.35483870967742,False,142.0,344.6666666666667,39.333333333333336,Oakleigh South Primary School,63.901428794472736,8,South Oakleigh Secondary College,435.06218402155923,259
ID685498861,21 Wurruk Av,PRESTON,990000.0,h,15/07/2017,4,2.0,2.0,500.0,59.0,-37.7324,145.00621999999996,20011,538.6189800115253,31.2,False,705.3333333333334,5479.666666666667,335.0,Preston Primary School,414.9214198461674,250,Preston High School,1031.9406092900833,not ranked
ID933757756,127 Duke St,SUNSHINE,655000.0,h,17/09/2016,3,1.0,1.0,497.0,94.0,-37.7809,144.8467,20021,1483.6487074398372,16.730337078651687,False,1363.6666666666667,6287.666666666667,564.3333333333334,Sunshine Harvester Primary School,243.3279026459063,not ranked,Braybrook College,303.2872643022833,139
ID946398127,2 Carr St,COBURG NORTH,970000.0,h,27/11/2016,3,1.0,2.0,575.0,59.0,-37.7307,144.9704,19964,735.976976082744,34.0,False,1071.3333333333333,5783.666666666667,419.6666666666667,Australian International Academy of Education,731.2244566665485,not ranked,Mercy College,515.07810208641,349
ID502126523,17 Wicklow St,PASCOE VALE,881000.0,h,15/07/2017,3,1.0,1.0,480.0,12.0,-37.71893,144.94246,19962,1663.1696106945037,37.0,False,705.3333333333334,5479.666666666667,335.0,Pascoe Vale North Primary School,590.0334565926829,not ranked,Pascoe Vale Girls Secondary College,631.5306421642528,371
ID885162875,1/94 The Strand,NEWPORT,1400000.0,h,7/05/2016,3,2.0,3.0,2522.0,13.0,-37.8462,144.8944,19994,1025.4741195407605,16.310344827586206,False,71.0,261.0,20.0,Westbourne Grammar School,446.68420519043315,58,Bayside P-12 College,1513.5180831586588,243
ID802596654,1 Alexander St,BRIGHTON EAST,1301000.0,h,12/11/2016,3,2.0,2.0,401.0,93.0,-37.9062,145.0173,19952,1298.9339725372085,24.5,False,2744.3333333333335,10289.666666666666,780.0,Gardenvale Primary School,261.3023556267656,138,Japanese School of Melbourne,1542.2589914793343,not ranked
ID488000918,25 Luntar Rd,OAKLEIGH SOUTH,1080000.0,h,12/11/2016,3,2.0,2.0,716.0,32.0,-37.9261,145.083,19916,2389.689388220752,31.35483870967742,False,136.33333333333334,302.6666666666667,42.0,Coatesville Primary School,1060.8781581131707,271,South Oakleigh Secondary College,728.1334729227607,259
ID302573205,1/118 Rathcown Rd,RESERVOIR,502000.0,u,15/07/2017,2,1.0,2.0,230.0,4.0,-37.709,145.02014,20009,943.5807801614404,35.2,False,885.0,1901.0,227.66666666666666,St Stephen's School,297.5579999015798,not ranked,Reservoir High School,1702.3046066957054,346
ID866923990,7 Weigall St,BRUNSWICK EAST,1500000.0,h,22/04/2017,3,1.0,3.0,446.0,79.0,-37.7682,144.9835,20016,1052.781883396924,21.3,False,817.6666666666666,1779.6666666666667,181.0,Brunswick East Primary School,448.45431214159305,not ranked,Northcote High School,858.9395948167889,178
ID671093320,60 Muriel St,NIDDRIE,1215000.0,h,3/09/2017,5,2.0,2.0,647.0,3.0,-37.74269,144.88607,20037,3038.2460435286685,20.42105263157895,False,84.33333333333333,293.3333333333333,23.0,St John Bosco's School,281.75242440405515,not ranked,Rosehill Secondary College,444.15530028090063,239
ID409916798,48a Purtell St,BENTLEIGH EAST,800000.0,t,7/05/2016,3,2.0,1.0,353.0,49.0,-37.9262,145.055,19938,1718.8707579147413,36.84615384615385,False,925.6666666666666,4701.333333333333,308.6666666666667,Tucker Road Bentleigh Primary School,880.3330938888662,380,Bentleigh Secondary College,440.5430417590268,230
